STAR ONE C3             
1 38991U 12062A   26065.28152878 -.00000254  00000+0  00000+0 0  9991
2 38991   0.0324 272.2520 0002315  90.4595 187.6389  1.00271883 48738
EUTELSAT 21B            
1 38992U 12062B   26065.22926856  .00000125  00000+0  00000+0 0  9997
2 38992   0.0686   1.8055 0002848 340.4240 285.8373  1.00272396 48795
ECHOSTAR 16             
1 39008U 12065A   26065.12128117 -.00000287  00000+0  00000+0 0  9992
2 39008   0.0200 136.4381 0002238 220.0690 149.4817  1.00271293 48612
ZHONGXING-12            
1 39017U 12067A   26065.10322527 -.00000212  00000+0  00000+0 0  9991
2 39017   0.0109 151.5202 0003395 188.8765 308.0687  1.00270665 48473
EUTELSAT 70B            
1 39020U 12069A   26065.21711520 -.00000048  00000+0  00000+0 0  9991
2 39020   0.0661 342.6142 0002115 342.6037 347.3796  1.00270714 48479
YAMAL 402               
1 39022U 12070A   26065.23594193  .00000081  00000+0  00000+0 0  9998
2 39022   0.9999  85.5815 0004068 260.7281 317.4868  1.00273620 48369
SKYNET 5D               
1 39034U 12075A   26065.24350596  .00000094  00000+0  00000+0 0  9998
2 39034   0.0697 343.3912 0003672   2.1444 318.8263  1.00275547 48128
MEXSAT 3                
1 39035U 12075B   26065.27364208 -.00000032  00000+0  00000+0 0  9990
2 39035   0.0309 238.2092 0002018  91.5440 177.9717  1.00278546  6024
TDRS 11                 
1 39070U 13004A   26065.19052839  .00000076  00000+0  00000+0 0  9994
2 39070   3.3700  29.3865 0004000 351.2846  37.5159  1.00277199 45667
AMAZONAS 3              
1 39078U 13006A   26065.19628160 -.00000288  00000+0  00000+0 0  9996
2 39078   0.0517 242.4015 0002434  87.2684 203.8602  1.00270791 43889
AZERSPACE 1             
1 39079U 13006B   26065.24350596  .00000128  00000+0  00000+0 0  9990
2 39079   0.0281 260.2519 0001036 114.1360 283.2426  1.00276110 47772
SBIRS GEO-2 (USA 241)   
1 39120U 13011A   26064.18794751 -.00000293  00000+0  00000+0 0  9994
2 39120   4.2633  52.3825 0002244 293.6308 194.7688  1.00270942 47495
EUTELSAT 117 WEST A     
1 39122U 13012A   26065.27320875 -.00000018  00000+0  00000+0 0  9995
2 39122   0.0500 296.1977 0002914  52.8654 156.4705  1.00271384 47400
ANIK G1                 
1 39127U 13014A   26065.27511543 -.00000079  00000+0  00000+0 0  9993
2 39127   0.0505 268.9453 0002942  57.2971 189.4792  1.00271983 47225
ZHONGXING-11            
1 39157U 13020A   26065.31576229 -.00000295  00000+0  00000+0 0  9990
2 39157   0.0422 311.8838 0000708  43.3297  20.4308  1.00271619 46868
EUTELSAT 7B             
1 39163U 13022A   26065.22640855  .00000043  00000+0  00000+0 0  9996
2 39163   0.0682 355.4655 0006330   0.2273 256.7427  1.00273050 46910
WGS F5 (USA 243)        
1 39168U 13024A   26064.92942956 -.00000290  00000+0  00000+0 0  9991
2 39168   0.0055 155.6586 0000315 236.2285  53.8660  1.00272230 46131
