[{"OBJECT_NAME":"STAR ONE C3","OBJECT_ID":"2012-062A","EPOCH":"2026-03-06T06:45:24.086592","MEAN_MOTION":1.00271883,"ECCENTRICITY":0.00023151,"INCLINATION":0.0324,"RA_OF_ASC_NODE":272.252,"ARG_OF_PERICENTER":90.4595,"MEAN_ANOMALY":187.6389,"EPHEMERIS_TYPE":0,"CLASSIFICATION_TYPE":"U","NORAD_CAT_ID":38991,"ELEMENT_SET_NO":999,"REV_AT_EPOCH":4873,"BSTAR":0,"MEAN_MOTION_DOT":-2.54e-6,"MEAN_MOTION_DDOT":0},{"OBJECT_NAME":"EUTELSAT 21B","OBJECT_ID":"2012-062B","EPOCH":"2026-03-06T05:30:08.803584","MEAN_MOTION":1.00272396,"ECCENTRICITY":0.00028484,"INCLINATION":0.0686,"RA_OF_ASC_NODE":1.8055,"ARG_OF_PERICENTER":340.424,"MEAN_ANOMALY":285.8373,"EPHEMERIS_TYPE":0,"CLASSIFICATION_TYPE":"U","NORAD_CAT_ID":38992,"ELEMENT_SET_NO":999,"REV_AT_EPOCH":4879,"BSTAR":0,"MEAN_MOTION_DOT":1.25e-6,"MEAN_MOTION_DDOT":0},{"OBJECT_NAME":"ECHOSTAR 16","OBJECT_ID":"2012-065A","EPOCH":"2026-03-06T02:54:38.693088","MEAN_MOTION":1.00271293,"ECCENTRICITY":0.00022387,"INCLINATION":0.02,"RA_OF_ASC_NODE":136.4381,"ARG_OF_PERICENTER":220.069,"MEAN_ANOMALY":149.4817,"EPHEMERIS_TYPE":0,"CLASSIFICATION_TYPE":"U","NORAD_CAT_ID":39008,"ELEMENT_SET_NO":999,"REV_AT_EPOCH":4861,"BSTAR":0,"MEAN_MOTION_DOT":-2.87e-6,"MEAN_MOTION_DDOT":0},{"OBJECT_NAME":"ZHONGXING-12","OBJECT_ID":"2012-067A","EPOCH":"2026-03-06T02:28:38.663328","MEAN_MOTION":1.00270665,"ECCENTRICITY":0.00033951,"INCLINATION":0.0109,"RA_OF_ASC_NODE":151.5202,"ARG_OF_PERICENTER":188.8765,"MEAN_ANOMALY":308.0687,"EPHEMERIS_TYPE":0,"CLASSIFICATION_TYPE":"U","NORAD_CAT_ID":39017,"ELEMENT_SET_NO":999,"REV_AT_EPOCH":4847,"BSTAR":0,"MEAN_MOTION_DOT":-2.12e-6,"MEAN_MOTION_DDOT":0},{"OBJECT_NAME":"EUTELSAT 70B","OBJECT_ID":"2012-069A","EPOCH":"2026-03-06T05:12:38.753280","MEAN_MOTION":1.00270714,"ECCENTRICITY":0.00021151,"INCLINATION":0.0661,"RA_OF_ASC_NODE":342.6142,"ARG_OF_PERICENTER":342.6037,"MEAN_ANOMALY":347.3796,"EPHEMERIS_TYPE":0,"CLASSIFICATION_TYPE":"U","NORAD_CAT_ID":39020,"ELEMENT_SET_NO":999,"REV_AT_EPOCH":4847,"BSTAR":0,"MEAN_MOTION_DOT":-4.8e-7,"MEAN_MOTION_DDOT":0},{"OBJECT_NAME":"YAMAL 402","OBJECT_ID":"2012-070A","EPOCH":"2026-03-06T05:39:45.382752","MEAN_MOTION":1.0027362,"ECCENTRICITY":0.00040683,"INCLINATION":0.9999,"RA_OF_ASC_NODE":85.5815,"ARG_OF_PERICENTER":260.7281,"MEAN_ANOMALY":317.4868,"EPHEMERIS_TYPE":0,"CLASSIFICATION_TYPE":"U","NORAD_CAT_ID":39022,"ELEMENT_SET_NO":999,"REV_AT_EPOCH":4836,"BSTAR":0,"MEAN_MOTION_DOT":8.1e-7,"MEAN_MOTION_DDOT":0},{"OBJECT_NAME":"SKYNET 5D","OBJECT_ID":"2012-075A","EPOCH":"2026-03-06T05:50:38.914944","MEAN_MOTION":1.00275547,"ECCENTRICITY":0.00036729,"INCLINATION":0.0697,"RA_OF_ASC_NODE":343.3912,"ARG_OF_PERICENTER":2.1444,"MEAN_ANOMALY":318.8263,"EPHEMERIS_TYPE":0,"CLASSIFICATION_TYPE":"U","NORAD_CAT_ID":39034,"ELEMENT_SET_NO":999,"REV_AT_EPOCH":4812,"BSTAR":0,"MEAN_MOTION_DOT":9.4e-7,"MEAN_MOTION_DDOT":0},{"OBJECT_NAME":"MEXSAT 3","OBJECT_ID":"2012-075B","EPOCH":"2026-03-06T06:34:02.675712","MEAN_MOTION":1.00278546,"ECCENTRICITY":0.00020186,"INCLINATION":0.0309,"RA_OF_ASC_NODE":238.2092,"ARG_OF_PERICENTER":91.544,"MEAN_ANOMALY":177.9717,"EPHEMERIS_TYPE":0,"CLASSIFICATION_TYPE":"U","NORAD_CAT_ID":39035,"ELEMENT_SET_NO":999,"REV_AT_EPOCH":602,"BSTAR":0,"MEAN_MOTION_DOT":-3.2e-7,"MEAN_MOTION_DDOT":0},{"OBJECT_NAME":"TDRS 11","OBJECT_ID":"2013-004A","EPOCH":"2026-03-06T04:34:21.652896","MEAN_MOTION":1.00277199,"ECCENTRICITY":0.00040008,"INCLINATION":3.37,"RA_OF_ASC_NODE":29.3865,"ARG_OF_PERICENTER":351.2846,"MEAN_ANOMALY":37.5159,"EPHEMERIS_TYPE":0,"CLASSIFICATION_TYPE":"U","NORAD_CAT_ID":39070,"ELEMENT_SET_NO":999,"REV_AT_EPOCH":4566,"BSTAR":0,"MEAN_MOTION_DOT":7.6e-7,"MEAN_MOTION_DDOT":0},{"OBJECT_NAME":"AMAZONAS 3","OBJECT_ID":"2013-006A","EPOCH":"2026-03-06T04:42:38.730240","MEAN_MOTION":1.00270791,"ECCENTRICITY":0.00024346,"INCLINATION":0.0517,"RA_OF_ASC_NODE":242.4015,"ARG_OF_PERICENTER":87.2684,"MEAN_ANOMALY":203.8602,"EPHEMERIS_TYPE":0,"CLASSIFICATION_TYPE":"U","NORAD_CAT_ID":39078,"ELEMENT_SET_NO":999,"REV_AT_EPOCH":4388,"BSTAR":0,"MEAN_MOTION_DOT":-2.88e-6,"MEAN_MOTION_DDOT":0},{"OBJECT_NAME":"AZERSPACE 1","OBJECT_ID":"2013-006B","EPOCH":"2026-03-06T05:50:38.914944","MEAN_MOTION":1.0027611,"ECCENTRICITY":0.00010362,"INCLINATION":0.0281,"RA_OF_ASC_NODE":260.2519,"ARG_OF_PERICENTER":114.136,"MEAN_ANOMALY":283.2426,"EPHEMERIS_TYPE":0,"CLASSIFICATION_TYPE":"U","NORAD_CAT_ID":39079,"ELEMENT_SET_NO":999,"REV_AT_EPOCH":4777,"BSTAR":0,"MEAN_MOTION_DOT":1.28e-6,"MEAN_MOTION_DDOT":0},{"OBJECT_NAME":"SBIRS GEO-2 (USA 241)","OBJECT_ID":"2013-011A","EPOCH":"2026-03-05T04:30:38.664864","MEAN_MOTION":1.00270942,"ECCENTRICITY":0.0002244,"INCLINATION":4.2633,"RA_OF_ASC_NODE":52.3825,"ARG_OF_PERICENTER":293.6308,"MEAN_ANOMALY":194.7688,"EPHEMERIS_TYPE":0,"CLASSIFICATION_TYPE":"U","NORAD_CAT_ID":39120,"ELEMENT_SET_NO":999,"REV_AT_EPOCH":4749,"BSTAR":0,"MEAN_MOTION_DOT":-2.93e-6,"MEAN_MOTION_DDOT":0},{"OBJECT_NAME":"EUTELSAT 117 WEST A","OBJECT_ID":"2013-012A","EPOCH":"2026-03-06T06:33:25.236000","MEAN_MOTION":1.00271384,"ECCENTRICITY":0.00029149,"INCLINATION":0.05,"RA_OF_ASC_NODE":296.1977,"ARG_OF_PERICENTER":52.8654,"MEAN_ANOMALY":156.4705,"EPHEMERIS_TYPE":0,"CLASSIFICATION_TYPE":"U","NORAD_CAT_ID":39122,"ELEMENT_SET_NO":999,"REV_AT_EPOCH":4740,"BSTAR":0,"MEAN_MOTION_DOT":-1.8e-7,"MEAN_MOTION_DDOT":0},{"OBJECT_NAME":"ANIK G1","OBJECT_ID":"2013-014A","EPOCH":"2026-03-06T06:36:09.973152","MEAN_MOTION":1.00271983,"ECCENTRICITY":0.00029424,"INCLINATION":0.0505,"RA_OF_ASC_NODE":268.9453,"ARG_OF_PERICENTER":57.2971,"MEAN_ANOMALY":189.4792,"EPHEMERIS_TYPE":0,"CLASSIFICATION_TYPE":"U","NORAD_CAT_ID":39127,"ELEMENT_SET_NO":999,"REV_AT_EPOCH":4722,"BSTAR":0,"MEAN_MOTION_DOT":-7.9e-7,"MEAN_MOTION_DDOT":0},{"OBJECT_NAME":"ZHONGXING-11","OBJECT_ID":"2013-020A","EPOCH":"2026-03-06T07:34:41.861856","MEAN_MOTION":1.00271619,"ECCENTRICITY":7.08e-5,"INCLINATION":0.0422,"RA_OF_ASC_NODE":311.8838,"ARG_OF_PERICENTER":43.3297,"MEAN_ANOMALY":20.4308,"EPHEMERIS_TYPE":0,"CLASSIFICATION_TYPE":"U","NORAD_CAT_ID":39157,"ELEMENT_SET_NO":999,"REV_AT_EPOCH":4686,"BSTAR":0,"MEAN_MOTION_DOT":-2.95e-6,"MEAN_MOTION_DDOT":0},{"OBJECT_NAME":"EUTELSAT 7B","OBJECT_ID":"2013-022A","EPOCH":"2026-03-06T05:26:01.698720","MEAN_MOTION":1.0027305,"ECCENTRICITY":0.00063302,"INCLINATION":0.0682,"RA_OF_ASC_NODE":355.4655,"ARG_OF_PERICENTER":0.2273,"MEAN_ANOMALY":256.7427,"EPHEMERIS_TYPE":0,"CLASSIFICATION_TYPE":"U","NORAD_CAT_ID":39163,"ELEMENT_SET_NO":999,"REV_AT_EPOCH":4691,"BSTAR":0,"MEAN_MOTION_DOT":4.3e-7,"MEAN_MOTION_DDOT":0},{"OBJECT_NAME":"WGS F5 (USA 243)","OBJECT_ID":"2013-024A","EPOCH":"2026-03-05T22:18:22.713984","MEAN_MOTION":1.0027223,"ECCENTRICITY":3.151e-5,"INCLINATION":0.0055,"RA_OF_ASC_NODE":155.6586,"ARG_OF_PERICENTER":236.2285,"MEAN_ANOMALY":53.866,"EPHEMERIS_TYPE":0,"CLASSIFICATION_TYPE":"U","NORAD_CAT_ID":39168,"ELEMENT_SET_NO":999,"REV_AT_EPOCH":4613,"BSTAR":0,"MEAN_MOTION_DOT":-2.9e-6,"MEAN_MOTION_DDOT":0}]
